[{"OBJECT_NAME":"SITRO-AIS 10 (BURDAEV)","OBJECT_ID":"2023-091AK","EPOCH":"2026-03-09T22:45:30.960864","MEAN_MOTION":15.34764555,"ECCENTRICITY":0.00081281,"INCLINATION":97.5182,"RA_OF_ASC_NODE":137.3607,"ARG_OF_PERICENTER":74.3981,"MEAN_ANOMALY":285.8158,"EPHEMERIS_TYPE":0,"CLASSIFICATION_TYPE":"U","NORAD_CAT_ID":57199,"ELEMENT_SET_NO":999,"REV_AT_EPOCH":14952,"BSTAR":0.00077206799,"MEAN_MOTION_DOT":0.00026021,"MEAN_MOTION_DDOT":0},{"OBJECT_NAME":"STARLINK-30219","OBJECT_ID":"2023-113N","EPOCH":"2026-03-09T22:00:01.999584","MEAN_MOTION":15.21768121,"ECCENTRICITY":0.00012669,"INCLINATION":43.0005,"RA_OF_ASC_NODE":15.1383,"ARG_OF_PERICENTER":299.1137,"MEAN_ANOMALY":139.1859,"EPHEMERIS_TYPE":0,"CLASSIFICATION_TYPE":"U","NORAD_CAT_ID":57507,"ELEMENT_SET_NO":999,"REV_AT_EPOCH":572,"BSTAR":0.033850626,"MEAN_MOTION_DOT":0.00840089,"MEAN_MOTION_DDOT":0}]
